{"type": "FeatureCollection", "features": [ {"type": "Feature", "properties": {"norad_id": 33867, "name": "IRIDIUM 33 DEB", "group": "iridium-33-debris", "lat": -32.28775349738513, "lon": -11.144148002339572, "alt_km": 387.78760915365365, "timestamp": "2025-12-10T16:57:12.022985+00:00", "meta": {"OBJECT_NAME": "IRIDIUM 33 DEB", "OBJECT_ID": "1997-051AL", "EPOCH": "2025-12-10T10:56:50.693856", "MEAN_MOTION": 15.63354376, "ECCENTRICITY": 0.0013167, "INCLINATION": 86.364, "RA_OF_ASC_NODE": 351.2878, "ARG_OF_PERICENTER": 91.1844, "MEAN_ANOMALY": 269.0932, "EPHEMERIS_TYPE": 0, "CLASSIFICATION_TYPE": "U", "NORAD_CAT_ID": 33867, "ELEMENT_SET_NO": 999, "REV_AT_EPOCH": 89475, "BSTAR": 0.0092111, "MEAN_MOTION_DOT": 0.00931891, "MEAN_MOTION_DDOT": 0}, "tle": {"line1": "1 33867U 97051AL  25344.45614229  .00931891  00000+0  92111-2 0  9996", "line2": "2 33867  86.3640 351.2878 0013167  91.1844 269.0932 15.63354376894752"}}, "geometry": {"type": "Point", "coordinates": [-11.144148002339572, -32.28775349738513]}}, {"type": "Feature", "properties": {"norad_id": 33870, "name": "IRIDIUM 33 DEB", "group": "iridium-33-debris", "lat": -9.463616691515035, "lon": -120.26227776329641, "alt_km": 728.4565024744006, "timestamp": "2025-12-10T16:57:12.022996+00:00", "meta": {"OBJECT_NAME": "IRIDIUM 33 DEB", "OBJECT_ID": "1997-051AP", "EPOCH": "2025-12-10T06:24:18.912384", "MEAN_MOTION": 14.45830234, "ECCENTRICITY": 0.0021205, "INCLINATION": 86.3744, "RA_OF_ASC_NODE": 59.3205, "ARG_OF_PERICENTER": 186.1349, "MEAN_ANOMALY": 237.0541, "EPHEMERIS_TYPE": 0, "CLASSIFICATION_TYPE": "U", "NORAD_CAT_ID": 33870, "ELEMENT_SET_NO": 999, "REV_AT_EPOCH": 88101, "BSTAR": 0.0012181, "MEAN_MOTION_DOT": 4.353e-05, "MEAN_MOTION_DDOT": 0}, "tle": {"line1": "1 33870U 97051AP  25344.26688556  .00004353  00000+0  12181-2 0  9996", "line2": "2 33870  86.3744  59.3205 0021205 186.1349 237.0541 14.45830234881015"}}, "geometry": {"type": "Point", "coordinates": [-120.26227776329641, -9.463616691515035]}}, {"type": "Feature", "properties": {"norad_id": 33881, "name": "IRIDIUM 33 DEB", "group": "iridium-33-debris", "lat": -20.446743195185775, "lon": 106.27575894694375, "alt_km": 750.228587862166, "timestamp": "2025-12-10T16:57:12.023007+00:00", "meta": {"OBJECT_NAME": "IRIDIUM 33 DEB", "OBJECT_ID": "1997-051BA", "EPOCH": "2025-12-10T09:03:19.667808", "MEAN_MOTION": 14.56501004, "ECCENTRICITY": 0.0061446, "INCLINATION": 86.3864, "RA_OF_ASC_NODE": 107.7688, "ARG_OF_PERICENTER": 182.2836, "MEAN_ANOMALY": 232.7021, "EPHEMERIS_TYPE": 0, "CLASSIFICATION_TYPE": "U", "NORAD_CAT_ID": 33881, "ELEMENT_SET_NO": 999, "REV_AT_EPOCH": 87466, "BSTAR": 0.0031972, "MEAN_MOTION_DOT": 0.00014624, "MEAN_MOTION_DDOT": 0}, "tle": {"line1": "1 33881U 97051BA  25344.37731097  .00014624  00000+0  31972-2 0  9990", "line2": "2 33881  86.3864 107.7688 0061446 182.2836 232.7021 14.56501004874662"}}, "geometry": {"type": "Point", "coordinates": [106.27575894694375, -20.446743195185775]}}, {"type": "Feature", "properties": {"norad_id": 33884, "name": "IRIDIUM 33 DEB", "group": "iridium-33-debris", "lat": 46.146214716458154, "lon": -173.0531962828951, "alt_km": 640.3868717809937, "timestamp": "2025-12-10T16:57:12.023018+00:00", "meta": {"OBJECT_NAME": "IRIDIUM 33 DEB", "OBJECT_ID": "1997-051BD", "EPOCH": "2025-12-10T08:19:18.691104", "MEAN_MOTION": 14.77350899, "ECCENTRICITY": 0.0009941, "INCLINATION": 86.3695, "RA_OF_ASC_NODE": 10.8982, "ARG_OF_PERICENTER": 332.9342, "MEAN_ANOMALY": 49.1777, "EPHEMERIS_TYPE": 0, "CLASSIFICATION_TYPE": "U", "NORAD_CAT_ID": 33884, "ELEMENT_SET_NO": 999, "REV_AT_EPOCH": 88812, "BSTAR": 0.0020635, "MEAN_MOTION_DOT": 0.00014711, "MEAN_MOTION_DDOT": 0}, "tle": {"line1": "1 33884U 97051BD  25344.34674411  .00014711  00000+0  20635-2 0  9997", "line2": "2 33884  86.3695  10.8982 0009941 332.9342  49.1777 14.77350899888127"}}, "geometry": {"type": "Point", "coordinates": [-173.0531962828951, 46.146214716458154]}}, {"type": "Feature", "properties": {"norad_id": 33886, "name": "IRIDIUM 33 DEB", "group": "iridium-33-debris", "lat": 1.5810094239498982, "lon": 68.18461105634455, "alt_km": 777.672646840967, "timestamp": "2025-12-10T16:57:12.023029+00:00", "meta": {"OBJECT_NAME": "IRIDIUM 33 DEB", "OBJECT_ID": "1997-051BF", "EPOCH": "2025-12-10T11:58:44.158944", "MEAN_MOTION": 14.36047962, "ECCENTRICITY": 0.0012175, "INCLINATION": 86.383, "RA_OF_ASC_NODE": 68.1718, "ARG_OF_PERICENTER": 250.4448, "MEAN_ANOMALY": 120.2843, "EPHEMERIS_TYPE": 0, "CLASSIFICATION_TYPE": "U", "NORAD_CAT_ID": 33886, "ELEMENT_SET_NO": 999, "REV_AT_EPOCH": 88020, "BSTAR": 0.00032782, "MEAN_MOTION_DOT": 9.73e-06, "MEAN_MOTION_DDOT": 0}, "tle": {"line1": "1 33886U 97051BF  25344.49912221  .00000973  00000+0  32782-3 0  9991", "line2": "2 33886  86.3830  68.1718 0012175 250.4448 120.2843 14.36047962880202"}}, "geometry": {"type": "Point", "coordinates": [68.18461105634455, 1.5810094239498982]}}, {"type": "Feature", "properties": {"norad_id": 33887, "name": "IRIDIUM 33 DEB", "group": "iridium-33-debris", "lat": -70.38880594917214, "lon": -6.182103448217282, "alt_km": 773.255426621261, "timestamp": "2025-12-10T16:57:12.023040+00:00", "meta": {"OBJECT_NAME": "IRIDIUM 33 DEB", "OBJECT_ID": "1997-051BG", "EPOCH": "2025-12-10T09:13:38.157024", "MEAN_MOTION": 14.37217786, "ECCENTRICITY": 0.0004256, "INCLINATION": 86.3045, "RA_OF_ASC_NODE": 4.4073, "ARG_OF_PERICENTER": 237.1767, "MEAN_ANOMALY": 187.5472, "EPHEMERIS_TYPE": 0, "CLASSIFICATION_TYPE": "U", "NORAD_CAT_ID": 33887, "ELEMENT_SET_NO": 999, "REV_AT_EPOCH": 88131, "BSTAR": 0.0002235, "MEAN_MOTION_DOT": 6.85e-06, "MEAN_MOTION_DDOT": 0}, "tle": {"line1": "1 33887U 97051BG  25344.38446941  .00000685  00000+0  22350-3 0  9991", "line2": "2 33887  86.3045   4.4073 0004256 237.1767 187.5472 14.37217786881316"}}, "geometry": {"type": "Point", "coordinates": [-6.182103448217282, -70.38880594917214]}}, {"type": "Feature", "properties": {"norad_id": 33953, "name": "IRIDIUM 33 DEB", "group": "iridium-33-debris", "lat": 12.213138039923589, "lon": 55.44595248413407, "alt_km": 711.2232763141665, "timestamp": "2025-12-10T16:57:12.023051+00:00", "meta": {"OBJECT_NAME": "IRIDIUM 33 DEB", "OBJECT_ID": "1997-051BN", "EPOCH": "2025-12-09T23:18:17.054208", "MEAN_MOTION": 14.5527898, "ECCENTRICITY": 0.00184582, "INCLINATION": 86.384, "RA_OF_ASC_NODE": 54.9808, "ARG_OF_PERICENTER": 111.2598, "MEAN_ANOMALY": 11.2257, "EPHEMERIS_TYPE": 0, "CLASSIFICATION_TYPE": "U", "NORAD_CAT_ID": 33953, "ELEMENT_SET_NO": 999, "REV_AT_EPOCH": 88263, "BSTAR": 0.0016887129, "MEAN_MOTION_DOT": 7.353e-05, "MEAN_MOTION_DDOT": 0}, "tle": {"line1": "1 33953U 97051BN  25343.97103072  .00007353  00000+0  16887-2 0  9990", "line2": "2 33953  86.3840  54.9808 0018458 111.2598  11.2257 14.55278980882635"}}, "geometry": {"type": "Point", "coordinates": [55.44595248413407, 12.213138039923589]}}, {"type": "Feature", "properties": {"norad_id": 33960, "name": "IRIDIUM 33 DEB", "group": "iridium-33-debris", "lat": -41.08551111048182, "lon": -72.80249131592949, "alt_km": 621.6626321414988, "timestamp": "2025-12-10T16:57:12.023061+00:00", "meta": {"OBJECT_NAME": "IRIDIUM 33 DEB", "OBJECT_ID": "1997-051BV", "EPOCH": "2025-12-10T08:09:24.835392", "MEAN_MOTION": 14.84978934, "ECCENTRICITY": 0.0007472, "INCLINATION": 86.2534, "RA_OF_ASC_NODE": 290.6456, "ARG_OF_PERICENTER": 66.0574, "MEAN_ANOMALY": 94.8264, "EPHEMERIS_TYPE": 0, "CLASSIFICATION_TYPE": "U", "NORAD_CAT_ID": 33960, "ELEMENT_SET_NO": 999, "REV_AT_EPOCH": 88831, "BSTAR": 0.0048552, "MEAN_MOTION_DOT": 0.00041622, "MEAN_MOTION_DDOT": 0}, "tle": {"line1": "1 33960U 97051BV  25344.33987078  .00041622  00000+0  48552-2 0  9996", "line2": "2 33960  86.2534 290.6456 0007472  66.0574  94.8264 14.84978934888319"}}, "geometry": {"type": "Point", "coordinates": [-72.80249131592949, -41.08551111048182]}}, {"type": "Feature", "properties": {"norad_id": 33966, "name": "IRIDIUM 33 DEB", "group": "iridium-33-debris", "lat": -0.5224113420400713, "lon": -133.06722133351562, "alt_km": 725.2446948679053, "timestamp": "2025-12-10T16:57:12.023072+00:00", "meta": {"OBJECT_NAME": "IRIDIUM 33 DEB", "OBJECT_ID": "1997-051CB", "EPOCH": "2025-12-10T11:13:12.353376", "MEAN_MOTION": 14.49579409, "ECCENTRICITY": 0.0007144, "INCLINATION": 86.3923, "RA_OF_ASC_NODE": 47.0023, "ARG_OF_PERICENTER": 195.7966, "MEAN_ANOMALY": 178.807, "EPHEMERIS_TYPE": 0, "CLASSIFICATION_TYPE": "U", "NORAD_CAT_ID": 33966, "ELEMENT_SET_NO": 999, "REV_AT_EPOCH": 88409, "BSTAR": 0.00084014, "MEAN_MOTION_DOT": 3.244e-05, "MEAN_MOTION_DDOT": 0}, "tle": {"line1": "1 33966U 97051CB  25344.46750409  .00003244  00000+0  84014-3 0  9994", "line2": "2 33966  86.3923  47.0023 0007144 195.7966 178.8070 14.49579409884097"}}, "geometry": {"type": "Point", "coordinates": [-133.06722133351562, -0.5224113420400713]}}, {"type": "Feature", "properties": {"norad_id": 34071, "name": "IRIDIUM 33 DEB", "group": "iridium-33-debris", "lat": -67.5976794108359, "lon": -152.36919436128562, "alt_km": 739.7404374535608, "timestamp": "2025-12-10T16:57:12.023083+00:00", "meta": {"OBJECT_NAME": "IRIDIUM 33 DEB", "OBJECT_ID": "1997-051CE", "EPOCH": "2025-12-10T10:50:36.682944", "MEAN_MOTION": 14.4944829, "ECCENTRICITY": 0.0009857, "INCLINATION": 86.3457, "RA_OF_ASC_NODE": 18.8226, "ARG_OF_PERICENTER": 113.7081, "MEAN_ANOMALY": 246.5159, "EPHEMERIS_TYPE": 0, "CLASSIFICATION_TYPE": "U", "NORAD_CAT_ID": 34071, "ELEMENT_SET_NO": 999, "REV_AT_EPOCH": 88301, "BSTAR": 0.00086211, "MEAN_MOTION_DOT": 3.32e-05, "MEAN_MOTION_DDOT": 0}, "tle": {"line1": "1 34071U 97051CE  25344.45181346  .00003320  00000+0  86211-3 0  9995", "line2": "2 34071  86.3457  18.8226 0009857 113.7081 246.5159 14.49448290883014"}}, "geometry": {"type": "Point", "coordinates": [-152.36919436128562, -67.5976794108359]}}]}